{
  "norad_id": 63245,
  "name": "BUCCANEER MM",
  "history": [
    {
      "epoch": "2026-03-28T22:53:33.991296Z",
      "apogee_km": 588.4722800689551,
      "perigee_km": 581.1731486595809,
      "latitude_deg": -8.675125893700885e-05,
      "longitude_deg": 170.83077243628085,
      "height_km": 589.2821295493519,
      "semi_major_axis_km": 6962.959714364268,
      "eccentricity": 0.00052414,
      "inclination_deg": 97.6965,
      "raan_deg": 340.5893,
      "arg_perigee_deg": 112.9149,
      "mean_anomaly_deg": 247.2624,
      "mean_motion_rev_day": 14.94211031
    },
    {
      "epoch": "2026-03-29T05:19:17.568768Z",
      "apogee_km": 588.4724188600139,
      "perigee_km": 581.1487905693757,
      "latitude_deg": -4.081726741352654e-06,
      "longitude_deg": 74.39766835486068,
      "height_km": 589.2408952357159,
      "semi_major_axis_km": 6962.9476047146945,
      "eccentricity": 0.0005259,
      "inclination_deg": 97.6964,
      "raan_deg": 340.8518,
      "arg_perigee_deg": 112.3419,
      "mean_anomaly_deg": 247.8359,
      "mean_motion_rev_day": 14.94214929
    }
  ]
}